[{"OBJECT_NAME":"STARLINK-3080","OBJECT_ID":"2021-082AH","EPOCH":"2026-03-09T22:44:32.359200","MEAN_MOTION":14.98350108,"ECCENTRICITY":0.00029736,"INCLINATION":69.9984,"RA_OF_ASC_NODE":293.7844,"ARG_OF_PERICENTER":264.6976,"MEAN_ANOMALY":95.3844,"EPHEMERIS_TYPE":0,"CLASSIFICATION_TYPE":"U","NORAD_CAT_ID":49161,"ELEMENT_SET_NO":999,"REV_AT_EPOCH":24709,"BSTAR":0.00012716737,"MEAN_MOTION_DOT":1.425e-5,"MEAN_MOTION_DDOT":0},{"OBJECT_NAME":"FENGYUN 1C DEB","OBJECT_ID":"1999-025DH","EPOCH":"2026-03-09T22:27:36.392832","MEAN_MOTION":14.64646374,"ECCENTRICITY":0.01796987,"INCLINATION":98.0552,"RA_OF_ASC_NODE":80.5984,"ARG_OF_PERICENTER":220.1282,"MEAN_ANOMALY":138.6535,"EPHEMERIS_TYPE":0,"CLASSIFICATION_TYPE":"U","NORAD_CAT_ID":29815,"ELEMENT_SET_NO":999,"REV_AT_EPOCH":1127,"BSTAR":0.000529441,"MEAN_MOTION_DOT":3.51e-5,"MEAN_MOTION_DDOT":0}]
